OBJECT_NAME,OBJECT_ID,EPOCH,MEAN_MOTION,ECCENTRICITY,INCLINATION,RA_OF_ASC_NODE,ARG_OF_PERICENTER,MEAN_ANOMALY,EPHEMERIS_TYPE,CLASSIFICATION_TYPE,NORAD_CAT_ID,ELEMENT_SET_NO,REV_AT_EPOCH,BSTAR,MEAN_MOTION_DOT,MEAN_MOTION_DDOT
GAOFEN-11 01,2018-063A,2026-06-30T13:18:19.786752,15.55672730,.00020781,97.1290,248.3986,285.1600,74.9425,0,U,43585,999,44242,.27856229E-3,.19061E-3,0
ICESAT-2,2018-070A,2026-06-30T13:52:34.008960,15.28259871,.00061959,92.0094,294.5968,89.4607,270.7352,0,U,43613,999,43450,.33975065E-3,.9357E-4,0
HYSIS,2018-096A,2026-06-30T13:01:28.061760,14.78643494,.00018532,97.9840,248.1857,89.7308,270.4116,0,U,43719,999,40939,.18031568E-3,.1269E-4,0
KAZSTSAT,2018-099AB,2026-06-30T13:46:01.121376,14.99913638,.00084159,97.4296,212.8956,32.3279,327.8459,0,U,43783,999,41331,.1634001E-3,.1972E-4,0
SAUDISAT 5A,2018-102A,2026-06-30T14:07:47.092800,15.28183775,.00112725,97.3062,242.9119,88.6103,271.6428,0,U,43831,999,41772,.20029382E-3,.5438E-4,0
SAUDISAT 5B,2018-102C,2026-06-30T14:31:43.247424,15.28433608,.00119916,97.3172,246.0222,90.2632,269.9982,0,U,43833,999,41784,.18689233E-3,.5109E-4,0
GAOFEN-10R,2019-066A,2026-06-30T13:55:43.827168,14.83028560,.00071749,98.0503,135.2572,90.4230,269.7805,0,U,44622,999,36436,.14932335E-3,.116E-4,0
CARTOSAT-3,2019-081A,2026-06-30T14:14:37.751136,15.19232662,.00133697,97.4299,243.2452,105.7216,254.5494,0,U,44804,999,36550,.27399407E-3,.5717E-4,0
GAOFEN-12 01,2019-082A,2026-06-30T14:20:02.681664,14.80469255,.00017354,97.8102,187.6228,56.3269,303.8109,0,U,44819,999,35607,.59891564E-4,.407E-5,0
CSG-1,2019-092A,2026-06-30T13:16:57.045792,14.82155253,.00013996,97.8891,4.9625,90.2137,269.9237,0,U,44873,999,35345,.58093509E-4,.41E-5,0
NEMO-HD,2020-061F,2026-06-30T14:29:30.888672,15.44859388,.00016157,97.1915,243.4228,74.4548,285.6880,0,U,46277,999,32405,.22131871E-3,.103E-3,0
SENTINEL-6A,2020-086A,2026-06-30T04:51:13.607712,12.80929931,.00078399,66.0411,108.0207,269.9742,90.0374,0,U,46984,999,26199,-.17447393E-4,-.65E-6,0
CAS500-1,2021-022A,2026-06-30T13:22:07.429152,15.20117078,.00033971,97.3887,76.5392,232.5941,127.4986,0,U,47932,999,29279,.32437005E-4,.634E-5,0
GAOFEN-12 02,2021-026A,2026-06-30T13:00:42.477120,14.80306176,.00047206,97.9925,179.6683,173.7125,186.4147,0,U,48079,999,28373,.55704967E-4,.372E-5,0
PLEIADES NEO 3,2021-034A,2026-06-30T13:22:08.827104,14.81672931,.00013275,97.8940,256.1311,90.4991,269.6374,0,U,48268,999,27963,.53656972E-4,.37E-5,0
PLEIADES NEO 4,2021-073E,2026-06-30T12:33:29.901600,14.81678230,.00013698,97.8940,256.0943,87.4414,272.6956,0,U,49070,999,26334,.17171839E-3,.13E-4,0
LANDSAT 9,2021-088A,2026-06-30T14:05:31.775712,14.57106126,.0001221,98.2277,251.6022,86.2904,273.8434,0,U,49260,999,25295,.85081457E-4,.338E-5,0
CSG-2,2022-008A,2026-06-30T12:28:19.869024,14.82151379,.00015057,97.8881,4.9236,85.0309,275.1076,0,U,51444,999,23856,-.10489113E-4,-.136E-5,0
GAOFEN-12 03,2022-069A,2026-06-30T13:47:09.697920,14.80053150,.00023895,97.8270,69.1068,89.4163,270.7323,0,U,52912,999,21659,.70231861E-4,.481E-5,0
SWOT,2022-173A,2026-06-30T13:32:58.172352,14.00171122,.0000309,77.6101,17.2503,88.2686,271.8501,0,U,54754,999,18102,.5124637E-4,.73E-6,0
GAOFEN-12 04,2023-123A,2026-06-30T14:11:16.164384,14.79750948,.00039578,97.9115,99.4125,79.5323,280.6335,0,U,57654,999,15461,.13344885E-3,.952E-5,0
PARS 1,2024-039Q,2026-06-30T14:01:35.229792,15.45999708,.00112595,97.4826,162.9286,72.1796,288.0680,0,U,59065,999,13071,.21456712E-3,.10398E-3,0
RESURS-P 4,2024-061A,2026-06-30T14:04:14.293920,15.32205387,.00029341,97.2758,129.2523,109.9251,250.2307,0,U,59371,999,12581,.9944859E-4,.3016E-4,0
LEGION 1,2024-081A,2026-06-30T13:17:26.422656,15.16755268,.0008265,97.5019,259.2684,329.5920,30.4833,0,U,59625,999,11956,.187803E-3,.362E-4,0
LEGION 2,2024-081B,2026-06-30T12:25:53.046048,15.16733128,.00099112,97.5021,259.3300,292.1738,67.8443,0,U,59626,999,11956,.18553601E-3,.3574E-4,0
ALOS-4 (DAICHI-4),2024-123A,2026-06-30T13:11:45.062304,14.79467465,.00016177,97.9220,278.5341,98.3799,261.7596,0,U,60182,999,10785,.19094832E-3,.1375E-4,0
LEGION 3,2024-146A,2026-06-30T12:10:01.660224,15.16050547,.00088299,45.0023,319.1170,245.0413,114.9549,0,U,60452,999,10404,.22901703E-3,.4221E-4,0
LEGION 4,2024-146B,2026-06-30T12:14:18.507552,15.16135883,.00121965,45.0024,51.0094,21.8770,338.2628,0,U,60453,999,10289,.24860189E-3,.4619E-4,0
SENTINEL-2C,2024-157A,2026-06-30T04:18:30.791520,14.30821202,.00009023,98.5691,255.7777,91.7497,268.3789,0,U,60989,999,9484,.57438648E-4,.107E-5,0
IONOSFERA-M 1,2024-199A,2026-06-30T13:20:13.153920,14.22756704,.00021804,98.7155,54.5858,92.4926,267.6502,0,U,61735,999,12960,.45147571E-4,.57E-6,0
