GAOFEN-11 01            
1 43585U 18063A   26181.55439568  .00019061  00000+0  27856-3 0  9993
2 43585  97.1290 248.3986 0002078 285.1600  74.9425 15.55672730442422
ICESAT-2                
1 43613U 18070A   26181.57817140  .00009357  00000+0  33975-3 0  9997
2 43613  92.0094 294.5968 0006195  89.4607 270.7352 15.28259871434501
HYSIS                   
1 43719U 18096A   26181.54268590  .00001269  00000+0  18032-3 0  9999
2 43719  97.9840 248.1857 0001853  89.7308 270.4116 14.78643494409396
KAZSTSAT                
1 43783U 18099AB  26181.57362409  .00001972  00000+0  16340-3 0  9991
2 43783  97.4296 212.8956 0008415  32.3279 327.8459 14.99913638413314
SAUDISAT 5A             
1 43831U 18102A   26181.58873950  .00005438  00000+0  20029-3 0  9999
2 43831  97.3062 242.9119 0011272  88.6103 271.6428 15.28183775417723
SAUDISAT 5B             
1 43833U 18102C   26181.60536166  .00005109  00000+0  18689-3 0  9993
2 43833  97.3172 246.0222 0011991  90.2632 269.9982 15.28433608417842
GAOFEN-10R              
1 44622U 19066A   26181.58036837  .00001160  00000+0  14932-3 0  9997
2 44622  98.0503 135.2572 0007174  90.4230 269.7805 14.83028560364363
CARTOSAT-3              
1 44804U 19081A   26181.59349249  .00005717  00000+0  27399-3 0  9994
2 44804  97.4299 243.2452 0013369 105.7216 254.5494 15.19232662365507
GAOFEN-12 01            
1 44819U 19082A   26181.59725326  .00000407  00000+0  59892-4 0  9990
2 44819  97.8102 187.6228 0001735  56.3269 303.8109 14.80469255356075
CSG-1                   
1 44873U 19092A   26181.55343803  .00000410  00000+0  58094-4 0  9990
2 44873  97.8891   4.9625 0001399  90.2137 269.9237 14.82155253353454
NEMO-HD                 
1 46277U 20061F   26181.60382973  .00010300  00000+0  22132-3 0  9997
2 46277  97.1915 243.4228 0001615  74.4548 285.6880 15.44859388324056
SENTINEL-6A             
1 46984U 20086A   26181.20224083 -.00000065  00000+0 -17447-4 0  9995
2 46984  66.0411 108.0207 0007839 269.9742  90.0374 12.80929931261999
CAS500-1                
1 47932U 21022A   26181.55703043  .00000634  00000+0  32437-4 0  9992
2 47932  97.3887  76.5392 0003397 232.5941 127.4986 15.20117078292797
GAOFEN-12 02            
1 48079U 21026A   26181.54215830  .00000372  00000+0  55705-4 0  9992
2 48079  97.9925 179.6683 0004720 173.7125 186.4147 14.80306176283730
PLEIADES NEO 3          
1 48268U 21034A   26181.55704661  .00000370  00000+0  53657-4 0  9999
2 48268  97.8940 256.1311 0001327  90.4991 269.6374 14.81672931279637
PLEIADES NEO 4          
1 49070U 21073E   26181.52326275  .00001300  00000+0  17172-3 0  9997
2 49070  97.8940 256.0943 0001369  87.4414 272.6956 14.81678230263340
LANDSAT 9               
1 49260U 21088A   26181.58717333  .00000338  00000+0  85081-4 0  9994
2 49260  98.2277 251.6022 0001221  86.2904 273.8434 14.57106126252958
CSG-2                   
1 51444U 22008A   26181.51967441 -.00000136  00000+0 -10489-4 0  9992
2 51444  97.8881   4.9236 0001505  85.0309 275.1076 14.82151379238564
GAOFEN-12 03            
1 52912U 22069A   26181.57441780  .00000481  00000+0  70232-4 0  9992
2 52912  97.8270  69.1068 0002389  89.4163 270.7323 14.80053150216591
SWOT                    
1 54754U 22173A   26181.56456218  .00000073  00000+0  51246-4 0  9996
2 54754  77.6101  17.2503 0000309  88.2686 271.8501 14.00171122181022
GAOFEN-12 04            
1 57654U 23123A   26181.59115931  .00000952  00000+0  13345-3 0  9994
2 57654  97.9115  99.4125 0003957  79.5323 280.6335 14.79750948154612
PARS 1                  
1 59065U 24039Q   26181.58443553  .00010398  00000+0  21457-3 0  9990
2 59065  97.4826 162.9286 0011259  72.1796 288.0680 15.45999708130718
RESURS-P 4              
1 59371U 24061A   26181.58627655  .00003016  00000+0  99449-4 0  9998
2 59371  97.2758 129.2523 0002934 109.9251 250.2307 15.32205387125816
LEGION 1                
1 59625U 24081A   26181.55377804  .00003620  00000+0  18780-3 0  9996
2 59625  97.5019 259.2684 0008265 329.5920  30.4833 15.16755268119566
LEGION 2                
1 59626U 24081B   26181.51797507  .00003574  00000+0  18554-3 0  9996
2 59626  97.5021 259.3300 0009911 292.1738  67.8443 15.16733128119569
ALOS-4 (DAICHI-4)       
1 60182U 24123A   26181.54982711  .00001375  00000+0  19095-3 0  9996
2 60182  97.9220 278.5341 0001617  98.3799 261.7596 14.79467465107858
LEGION 3                
1 60452U 24146A   26181.50696366  .00004221  00000+0  22902-3 0  9999
2 60452  45.0023 319.1170 0008829 245.0413 114.9549 15.16050547104047
LEGION 4                
1 60453U 24146B   26181.50993643  .00004619  00000+0  24860-3 0  9994
2 60453  45.0024  51.0094 0012196  21.8770 338.2628 15.16135883102891
SENTINEL-2C             
1 60989U 24157A   26181.17952305  .00000107  00000+0  57439-4 0  9990
2 60989  98.5691 255.7777 0000902  91.7497 268.3789 14.30821202 94841
IONOSFERA-M 1           
1 61735U 24199A   26181.55570780  .00000057  00000+0  45148-4 0  9999
2 61735  98.7155  54.5858 0002180  92.4926 267.6502 14.22756704129601
